OBJECT_NAME,OBJECT_ID,EPOCH,MEAN_MOTION,ECCENTRICITY,INCLINATION,RA_OF_ASC_NODE,ARG_OF_PERICENTER,MEAN_ANOMALY,EPHEMERIS_TYPE,CLASSIFICATION_TYPE,NORAD_CAT_ID,ELEMENT_SET_NO,REV_AT_EPOCH,BSTAR,MEAN_MOTION_DOT,MEAN_MOTION_DDOT
STARLINK-37948,2026-143X,2026-07-11T16:36:57.657600,15.49199709,.00004707,97.2861,236.6277,97.5632,262.5672,0,U,69670,999,427,.27929963E-3,.15134E-3,0
STARLINK-37949,2026-143Y,2026-07-11T22:00:03.000096,15.49194026,.00007916,97.2855,236.9136,52.9666,253.5754,0,U,69671,999,433,.72953256E-3,.39794E-3,0
STARLINK-37946,2026-143Z,2026-07-11T22:00:03.000096,15.49174437,.00015488,97.2854,236.9476,69.2305,315.0148,0,U,69672,999,433,.8270893E-3,.45128E-3,0
TJS-26A,2026-144A,2026-07-11T22:05:54.602304,1.00276775,.0004064,6.9544,323.2307,347.6744,57.9151,0,U,69674,999,19,0,-.34E-5,0
STARLINK-38005,2026-145A,2026-07-11T13:20:07.235520,15.75191285,.00018009,97.2840,39.2128,359.3603,0.7659,0,U,69677,999,260,.99732134E-3,.151302E-2,0
STARLINK-38009,2026-145B,2026-07-11T19:23:29.598144,15.75257025,.00011045,97.2848,39.4809,89.6628,270.4764,0,U,69678,999,264,.11106326E-2,.169343E-2,0
STARLINK-37998,2026-145C,2026-07-11T22:00:03.000096,15.75181253,.00013807,97.2850,39.6023,87.0797,183.1505,0,U,69679,999,390,-.17723019E-3,-.26473E-3,0
STARLINK-37994,2026-145D,2026-07-11T22:00:03.000096,15.75186778,.00012846,97.2851,39.5978,100.7827,161.4705,0,U,69680,999,390,-.41195171E-3,-.61128E-3,0
STARLINK-37992,2026-145E,2026-07-11T22:00:03.000096,15.75132660,.00012924,97.2849,39.5991,81.5272,182.7330,0,U,69681,999,390,.27986428E-3,.41714E-3,0
STARLINK-37997,2026-145F,2026-07-11T22:00:03.000096,15.75166723,.00013645,97.2851,39.6009,101.3589,166.8925,0,U,69682,999,390,-.158692E-3,-.2371E-3,0
STARLINK-37990,2026-145G,2026-07-11T11:42:32.307552,15.77407529,.00077162,97.2847,39.1506,233.5734,126.4821,0,U,69683,999,259,.90586922E-3,.151633E-2,0
STARLINK-37951,2026-145H,2026-07-11T13:13:30.841824,15.75217920,.00015602,97.2833,39.2195,13.0467,347.0839,0,U,69684,999,260,.38569942E-3,.57861E-3,0
STARLINK-37957,2026-145J,2026-07-11T20:49:23.344320,15.75213567,.00021559,97.2864,39.5543,108.0140,252.1360,0,U,69685,999,265,.89671187E-3,.135915E-2,0
STARLINK-37968,2026-145K,2026-07-11T20:40:45.054912,15.75254062,.00010021,97.2842,39.5613,71.5707,288.5667,0,U,69686,999,265,.14237407E-2,.218353E-2,0
STARLINK-37977,2026-145L,2026-07-11T13:02:20.056416,15.75206895,.00011206,97.2847,39.2302,67.9821,292.1563,0,U,69687,999,260,.63802419E-3,.96183E-3,0
STARLINK-37908,2026-145M,2026-07-11T12:59:17.124288,15.75181591,.00011006,97.2846,39.2336,17.0073,343.1229,0,U,69688,999,260,.79030968E-3,.119366E-2,0
STARLINK-37979,2026-145N,2026-07-11T12:58:46.766784,15.75179085,.00011463,97.2845,39.2328,35.8959,324.2383,0,U,69689,999,260,.74110371E-3,.111815E-2,0
STARLINK-37940,2026-145P,2026-07-11T12:57:15.226848,15.75179003,.00014902,97.2851,39.2341,7.0887,353.0399,0,U,69690,999,260,.805811E-3,.121732E-2,0
STARLINK-37961,2026-145Q,2026-07-11T12:52:40.916352,15.75188485,.00012363,97.2844,39.2381,9.1250,351.0038,0,U,69691,999,260,.87984473E-3,.13316E-2,0
STARLINK-37787,2026-145R,2026-07-11T12:49:37.815744,15.75235835,.00014222,97.2846,39.2425,113.0596,247.0819,0,U,69692,999,260,.83473798E-3,.126488E-2,0
STARLINK-37962,2026-145S,2026-07-11T12:47:05.307648,15.75246550,.0001558,97.2846,39.2439,115.2253,244.9174,0,U,69693,999,260,.95613635E-3,.145291E-2,0
STARLINK-37953,2026-145T,2026-07-11T12:51:09.427392,15.75166819,.00013568,97.2847,39.2392,29.8767,330.2576,0,U,69694,999,260,.8091307E-3,.122175E-2,0
STARLINK-37926,2026-145U,2026-07-11T12:50:07.820736,15.75207577,.00075943,97.2826,39.2387,144.6559,215.5211,0,U,69695,999,260,.69359053E-3,.104845E-2,0
STARLINK-37959,2026-145V,2026-07-11T12:48:36.980640,15.75209865,.00014727,97.2834,39.2438,27.9813,332.1531,0,U,69696,999,260,.82798038E-3,.125304E-2,0
STARLINK-37976,2026-145W,2026-07-11T12:44:32.911872,15.75249691,.00016158,97.2840,39.2463,104.6807,255.4637,0,U,69697,999,260,.96358056E-3,.146464E-2,0
STARLINK-37912,2026-145X,2026-07-11T12:43:01.497216,15.75235072,.00014749,97.2844,39.2488,99.2640,260.8792,0,U,69698,999,260,.85110971E-3,.129005E-2,0
STARLINK-37974,2026-145Y,2026-07-11T12:42:00.518688,15.75230632,.00019239,97.2838,39.2496,106.8532,253.2945,0,U,69699,999,260,.79362674E-3,.120139E-2,0
STARLINK-37955,2026-145Z,2026-07-11T20:15:49.393152,15.75186727,.00013987,97.2845,39.5865,94.2238,265.9187,0,U,69700,999,265,.14694919E-3,.21842E-3,0
